[
  {
    "OBJECT_NAME": "STARLINK-31298",
    "OBJECT_ID": "24044R",
    "EPOCH": "2025-11-11T06:15:39.648384",
    "MEAN_MOTION": 15.27587466,
    "ECCENTRICITY": 0.0001135,
    "INCLINATION": 43.0023,
    "RA_OF_ASC_NODE": 55.8344,
    "ARG_OF_PERICENTER": 275.4206,
    "MEAN_ANOMALY": 84.6516,
    "EPHEMERIS_TYPE": 0,
    "CLASSIFICATION_TYPE": "U",
    "NORAD_CAT_ID": 59167,
    "ELEMENT_SET_NO": 999,
    "REV_AT_EPOCH": 9545,
    "BSTAR": 7.1036e-05,
    "MEAN_MOTION_DOT": 1.694e-05,
    "MEAN_MOTION_DDOT": 0.0,
    "TLE_LINE1": "1 59167U 24044R   25315.26087556  .00001694  00000+0  71036-4 0  9997",
    "TLE_LINE2": "2 59167  43.0023  55.8344 0001135 275.4206  84.6516 15.27587466 95451",
    "COMMENT": "Grouped by shell and plane from TLE"
  },
  {
    "OBJECT_NAME": "STARLINK-31329",
    "OBJECT_ID": "24044T",
    "EPOCH": "2025-11-11T06:41:34.008576",
    "MEAN_MOTION": 15.27559189,
    "ECCENTRICITY": 0.0003378,
    "INCLINATION": 43.0068,
    "RA_OF_ASC_NODE": 55.9618,
    "ARG_OF_PERICENTER": 274.1543,
    "MEAN_ANOMALY": 85.8923,
    "EPHEMERIS_TYPE": 0,
    "CLASSIFICATION_TYPE": "U",
    "NORAD_CAT_ID": 59169,
    "ELEMENT_SET_NO": 999,
    "REV_AT_EPOCH": 9545,
    "BSTAR": 0.0,
    "MEAN_MOTION_DOT": -2.927e-05,
    "MEAN_MOTION_DDOT": 0.0,
    "TLE_LINE1": "1 59169U 24044T   25315.27886584 -.00002927  00000+0 -96897-4 0  9992",
    "TLE_LINE2": "2 59169  43.0068  55.9618 0003378 274.1543  85.8923 15.27559189 95454",
    "COMMENT": "Grouped by shell and plane from TLE"
  },
  {
    "OBJECT_NAME": "STARLINK-31344",
    "OBJECT_ID": "24044V",
    "EPOCH": "2025-11-11T06:47:06.387648",
    "MEAN_MOTION": 15.27575172,
    "ECCENTRICITY": 8.46e-05,
    "INCLINATION": 43.0022,
    "RA_OF_ASC_NODE": 55.9877,
    "ARG_OF_PERICENTER": 224.2287,
    "MEAN_ANOMALY": 135.8497,
    "EPHEMERIS_TYPE": 0,
    "CLASSIFICATION_TYPE": "U",
    "NORAD_CAT_ID": 59171,
    "ELEMENT_SET_NO": 999,
    "REV_AT_EPOCH": 9548,
    "BSTAR": 5.6945000000000005e-05,
    "MEAN_MOTION_DOT": 1.305e-05,
    "MEAN_MOTION_DDOT": 0.0,
    "TLE_LINE1": "1 59171U 24044V   25315.28271282  .00001305  00000+0  56945-4 0  9996",
    "TLE_LINE2": "2 59171  43.0022  55.9877 0000846 224.2287 135.8497 15.27575172 95487",
    "COMMENT": "Grouped by shell and plane from TLE"
  },
  {
    "OBJECT_NAME": "STARLINK-31289",
    "OBJECT_ID": "24044X",
    "EPOCH": "2025-11-11T06:21:14.244480",
    "MEAN_MOTION": 15.27558221,
    "ECCENTRICITY": 8.75e-05,
    "INCLINATION": 43.0045,
    "RA_OF_ASC_NODE": 55.8615,
    "ARG_OF_PERICENTER": 305.3434,
    "MEAN_ANOMALY": 54.7336,
    "EPHEMERIS_TYPE": 0,
    "CLASSIFICATION_TYPE": "U",
    "NORAD_CAT_ID": 59173,
    "ELEMENT_SET_NO": 999,
    "REV_AT_EPOCH": 9548,
    "BSTAR": 0.0,
    "MEAN_MOTION_DOT": -2.303e-05,
    "MEAN_MOTION_DDOT": 0.0,
    "TLE_LINE1": "1 59173U 24044X   25315.26474820 -.00002303  00000+0 -74247-4 0  9995",
    "TLE_LINE2": "2 59173  43.0045  55.8615 0000875 305.3434  54.7336 15.27558221 95487",
    "COMMENT": "Grouped by shell and plane from TLE"
  },
  {
    "OBJECT_NAME": "STARLINK-32857",
    "OBJECT_ID": "25029B",
    "EPOCH": "2025-11-11T06:39:45.340704",
    "MEAN_MOTION": 15.30205966,
    "ECCENTRICITY": 0.0004456,
    "INCLINATION": 53.1632,
    "RA_OF_ASC_NODE": 59.9628,
    "ARG_OF_PERICENTER": 306.2885,
    "MEAN_ANOMALY": 53.7704,
    "EPHEMERIS_TYPE": 0,
    "CLASSIFICATION_TYPE": "U",
    "NORAD_CAT_ID": 62949,
    "ELEMENT_SET_NO": 999,
    "REV_AT_EPOCH": 4326,
    "BSTAR": 0.0014249,
    "MEAN_MOTION_DOT": 0.00042099,
    "MEAN_MOTION_DDOT": 0.0,
    "TLE_LINE1": "1 62949U 25029B   25315.27760811  .00042099  00000+0  14249-2 0  9991",
    "TLE_LINE2": "2 62949  53.1632  59.9628 0004456 306.2885  53.7704 15.30205966 43260",
    "COMMENT": "Grouped by shell and plane from TLE"
  },
  {
    "OBJECT_NAME": "STARLINK-32882",
    "OBJECT_ID": "25029R",
    "EPOCH": "2025-11-11T08:00:03.000384",
    "MEAN_MOTION": 15.30169953,
    "ECCENTRICITY": 0.0001366,
    "INCLINATION": 53.16,
    "RA_OF_ASC_NODE": 59.9536,
    "ARG_OF_PERICENTER": 111.9141,
    "MEAN_ANOMALY": 61.8669,
    "EPHEMERIS_TYPE": 0,
    "CLASSIFICATION_TYPE": "U",
    "NORAD_CAT_ID": 62963,
    "ELEMENT_SET_NO": 999,
    "REV_AT_EPOCH": 588,
    "BSTAR": 0.0011566999999999999,
    "MEAN_MOTION_DOT": 0.00034024,
    "MEAN_MOTION_DDOT": 0.0,
    "TLE_LINE1": "1 62963U 25029R   25315.33336806  .00034024  00000+0  11567-2 0  9996",
    "TLE_LINE2": "2 62963  53.1600  59.9536 0001366 111.9141  61.8669 15.30169953  5883",
    "COMMENT": "Grouped by shell and plane from TLE"
  },
  {
    "OBJECT_NAME": "STARLINK-33531",
    "OBJECT_ID": "25065A",
    "EPOCH": "2025-11-11T07:01:48.901440",
    "MEAN_MOTION": 15.27612291,
    "ECCENTRICITY": 0.0003826,
    "INCLINATION": 43.0028,
    "RA_OF_ASC_NODE": 55.6451,
    "ARG_OF_PERICENTER": 291.5145,
    "MEAN_ANOMALY": 68.5299,
    "EPHEMERIS_TYPE": 0,
    "CLASSIFICATION_TYPE": "U",
    "NORAD_CAT_ID": 63399,
    "ELEMENT_SET_NO": 999,
    "REV_AT_EPOCH": 3473,
    "BSTAR": 0.0012695999999999999,
    "MEAN_MOTION_DOT": 0.00034878,
    "MEAN_MOTION_DDOT": 0.0,
    "TLE_LINE1": "1 63399U 25065A   25315.29292710  .00034878  00000+0  12696-2 0  9991",
    "TLE_LINE2": "2 63399  43.0028  55.6451 0003826 291.5145  68.5299 15.27612291 34733",
    "COMMENT": "Grouped by shell and plane from TLE"
  },
  {
    "OBJECT_NAME": "STARLINK-33652",
    "OBJECT_ID": "25065B",
    "EPOCH": "2025-11-11T06:24:48.363552",
    "MEAN_MOTION": 15.2762916,
    "ECCENTRICITY": 3.04e-05,
    "INCLINATION": 42.9971,
    "RA_OF_ASC_NODE": 55.4467,
    "ARG_OF_PERICENTER": 10.0494,
    "MEAN_ANOMALY": 350.0364,
    "EPHEMERIS_TYPE": 0,
    "CLASSIFICATION_TYPE": "U",
    "NORAD_CAT_ID": 63400,
    "ELEMENT_SET_NO": 999,
    "REV_AT_EPOCH": 3473,
    "BSTAR": 0.0018358,
    "MEAN_MOTION_DOT": 0.0005068,
    "MEAN_MOTION_DDOT": 0.0,
    "TLE_LINE1": "1 63400U 25065B   25315.26722643  .00050680  00000+0  18358-2 0  9994",
    "TLE_LINE2": "2 63400  42.9971  55.4467 0000304  10.0494 350.0364 15.27629160 34730",
    "COMMENT": "Grouped by shell and plane from TLE"
  },
  {
    "OBJECT_NAME": "STARLINK-33707",
    "OBJECT_ID": "25065C",
    "EPOCH": "2025-11-11T06:56:15.635040",
    "MEAN_MOTION": 15.276179,
    "ECCENTRICITY": 7.07e-05,
    "INCLINATION": 43.0019,
    "RA_OF_ASC_NODE": 55.6176,
    "ARG_OF_PERICENTER": 266.1217,
    "MEAN_ANOMALY": 93.9554,
    "EPHEMERIS_TYPE": 0,
    "CLASSIFICATION_TYPE": "U",
    "NORAD_CAT_ID": 63401,
    "ELEMENT_SET_NO": 999,
    "REV_AT_EPOCH": 3473,
    "BSTAR": 0.0016058000000000001,
    "MEAN_MOTION_DOT": 0.00044243,
    "MEAN_MOTION_DDOT": 0.0,
    "TLE_LINE1": "1 63401U 25065C   25315.28906985  .00044243  00000+0  16058-2 0  9993",
    "TLE_LINE2": "2 63401  43.0019  55.6176 0000707 266.1217  93.9554 15.27617900 34732",
    "COMMENT": "Grouped by shell and plane from TLE"
  },
  {
    "OBJECT_NAME": "STARLINK-33668",
    "OBJECT_ID": "25065D",
    "EPOCH": "2025-11-11T07:22:10.185312",
    "MEAN_MOTION": 15.27612739,
    "ECCENTRICITY": 1.82e-05,
    "INCLINATION": 42.9978,
    "RA_OF_ASC_NODE": 55.7504,
    "ARG_OF_PERICENTER": 88.1087,
    "MEAN_ANOMALY": 271.9785,
    "EPHEMERIS_TYPE": 0,
    "CLASSIFICATION_TYPE": "U",
    "NORAD_CAT_ID": 63402,
    "ELEMENT_SET_NO": 999,
    "REV_AT_EPOCH": 3473,
    "BSTAR": 0.0014724000000000002,
    "MEAN_MOTION_DOT": 0.00040517,
    "MEAN_MOTION_DDOT": 0.0,
    "TLE_LINE1": "1 63402U 25065D   25315.30706233  .00040517  00000+0  14724-2 0  9999",
    "TLE_LINE2": "2 63402  42.9978  55.7504 0000182  88.1087 271.9785 15.27612739 34734",
    "COMMENT": "Grouped by shell and plane from TLE"
  },
  {
    "OBJECT_NAME": "STARLINK-33676",
    "OBJECT_ID": "25065E",
    "EPOCH": "2025-11-11T06:54:24.719040",
    "MEAN_MOTION": 15.27607848,
    "ECCENTRICITY": 3.23e-05,
    "INCLINATION": 42.9992,
    "RA_OF_ASC_NODE": 55.6037,
    "ARG_OF_PERICENTER": 296.3729,
    "MEAN_ANOMALY": 63.7089,
    "EPHEMERIS_TYPE": 0,
    "CLASSIFICATION_TYPE": "U",
    "NORAD_CAT_ID": 63403,
    "ELEMENT_SET_NO": 999,
    "REV_AT_EPOCH": 3473,
    "BSTAR": 0.0016238,
    "MEAN_MOTION_DOT": 0.00044731,
    "MEAN_MOTION_DDOT": 0.0,
    "TLE_LINE1": "1 63403U 25065E   25315.28778610  .00044731  00000+0  16238-2 0  9999",
    "TLE_LINE2": "2 63403  42.9992  55.6037 0000323 296.3729  63.7089 15.27607848 34733",
    "COMMENT": "Grouped by shell and plane from TLE"
  },
  {
    "OBJECT_NAME": "STARLINK-33711",
    "OBJECT_ID": "25065F",
    "EPOCH": "2025-11-11T06:22:57.464832",
    "MEAN_MOTION": 15.2759864,
    "ECCENTRICITY": 6.68e-05,
    "INCLINATION": 43.0022,
    "RA_OF_ASC_NODE": 55.4401,
    "ARG_OF_PERICENTER": 11.7567,
    "MEAN_ANOMALY": 348.33,
    "EPHEMERIS_TYPE": 0,
    "CLASSIFICATION_TYPE": "U",
    "NORAD_CAT_ID": 63404,
    "ELEMENT_SET_NO": 999,
    "REV_AT_EPOCH": 3473,
    "BSTAR": 0.0011152,
    "MEAN_MOTION_DOT": 0.00030571,
    "MEAN_MOTION_DDOT": 0.0,
    "TLE_LINE1": "1 63404U 25065F   25315.26594288  .00030571  00000+0  11152-2 0  9992",
    "TLE_LINE2": "2 63404  43.0022  55.4401 0000668  11.7567 348.3300 15.27598640 34731",
    "COMMENT": "Grouped by shell and plane from TLE"
  },
  {
    "OBJECT_NAME": "STARLINK-33708",
    "OBJECT_ID": "25065G",
    "EPOCH": "2025-11-11T06:59:57.610464",
    "MEAN_MOTION": 15.27625542,
    "ECCENTRICITY": 0.0002178,
    "INCLINATION": 42.9999,
    "RA_OF_ASC_NODE": 55.6295,
    "ARG_OF_PERICENTER": 287.8575,
    "MEAN_ANOMALY": 72.2039,
    "EPHEMERIS_TYPE": 0,
    "CLASSIFICATION_TYPE": "U",
    "NORAD_CAT_ID": 63405,
    "ELEMENT_SET_NO": 999,
    "REV_AT_EPOCH": 3473,
    "BSTAR": 0.0023081,
    "MEAN_MOTION_DOT": 0.00063894,
    "MEAN_MOTION_DDOT": 0.0,
    "TLE_LINE1": "1 63405U 25065G   25315.29163901  .00063894  00000+0  23081-2 0  9998",
    "TLE_LINE2": "2 63405  42.9999  55.6295 0002178 287.8575  72.2039 15.27625542 34733",
    "COMMENT": "Grouped by shell and plane from TLE"
  }
]